STARLINK-1559           
1 46077U 20055BC  26068.23360559  .00042685  00000+0  14779-2 0  9995
2 46077  53.0254  76.0659 0004229  33.9710 326.1559 15.29461733309518
STARLINK-34785          
1 65354U 25190D   26068.57310080  .00032636  00000+0  11110-2 0  9991
2 65354  53.1588 168.9876 0001355  82.0202 278.0953 15.30147928 29261
