[{"OBJECT_NAME":"STARLINK-1559","OBJECT_ID":"2020-055BC","EPOCH":"2026-03-09T05:36:23.522976","MEAN_MOTION":15.29461733,"ECCENTRICITY":0.0004229,"INCLINATION":53.0254,"RA_OF_ASC_NODE":76.0659,"ARG_OF_PERICENTER":33.971,"MEAN_ANOMALY":326.1559,"EPHEMERIS_TYPE":0,"CLASSIFICATION_TYPE":"U","NORAD_CAT_ID":46077,"ELEMENT_SET_NO":999,"REV_AT_EPOCH":30951,"BSTAR":0.0014778793,"MEAN_MOTION_DOT":0.00042685,"MEAN_MOTION_DDOT":0},{"OBJECT_NAME":"STARLINK-34785","OBJECT_ID":"2025-190D","EPOCH":"2026-03-09T13:45:15.909120","MEAN_MOTION":15.30147928,"ECCENTRICITY":0.0001355,"INCLINATION":53.1588,"RA_OF_ASC_NODE":168.9876,"ARG_OF_PERICENTER":82.0202,"MEAN_ANOMALY":278.0953,"EPHEMERIS_TYPE":0,"CLASSIFICATION_TYPE":"U","NORAD_CAT_ID":65354,"ELEMENT_SET_NO":999,"REV_AT_EPOCH":2926,"BSTAR":0.001111,"MEAN_MOTION_DOT":0.00032636,"MEAN_MOTION_DDOT":0}]
